     2.11           N: GPS NAV DATA                         RINEX VERSION / TYPE
teqc  2019Feb25                         20221121 12:24:46UTCPGM / RUN BY / DATE
OSX ker:10.11.6|Core i5|gcc 4.3 -m64|OSX ker:10.10+|=+      COMMENT
    4.6566D-09  1.4901D-08 -5.9605D-08 -1.1921D-07          ION ALPHA
    8.1920D+04  8.1920D+04 -6.5536D+04 -5.2429D+05          ION BETA
   -3.725290298462D-09-7.993605777301D-15   589824     1538 DELTA-UTC: A0,A1,T,W
                                                            END OF HEADER
 3 09  7  3  0  0  0.0 4.147724248469D-04 5.229594535194D-12 0.000000000000D+00
    1.060000000000D+02-2.500000000000D-01 5.869887361513D-09 1.222552667403D+00
    1.490116119385D-07 1.201716472860D-02 6.344169378281D-06 5.153630731583D+03
    4.320000000000D+05-1.937150955200D-07-2.186087195169D+00 1.750886440277D-07
    9.261884850223D-01 2.432500000000D+02 9.097959993295D-01-8.688219042054D-09
   -9.643258823294D-11 1.000000000000D+00 1.538000000000D+03 0.000000000000D+00
    2.800000000000D+00 0.000000000000D+00-4.190951585770D-09 1.060000000000D+02
    4.248180000000D+05 4.000000000000D+00
 6 09  7  3  0  0  0.0 1.805936917663D-04 1.182343112305D-11 0.000000000000D+00
    9.100000000000D+01-3.437500000000D-01 5.567374760649D-09-2.651734312384D+00
    1.005828380585D-07 5.980146001093D-03 5.859881639481D-06 5.153693616867D+03
    4.320000000000D+05 2.048909664154D-08-2.118184591485D+00 1.490116119385D-07
    9.336078349823D-01 2.504687500000D+02-1.324740067050D+00-8.285345117881D-09
   -1.928651764659D-11 1.000000000000D+00 1.538000000000D+03 0.000000000000D+00
    2.000000000000D+00 0.000000000000D+00-4.656612873077D-09 9.100000000000D+01
    4.248180000000D+05 4.000000000000D+00
25 09  7  3  0  0  0.0 4.903296940029D-04 1.784883352229D-11 0.000000000000D+00
    1.160000000000D+02-1.155312500000D+02 4.118742990749D-09-1.979199266462D+00
   -5.628913640976D-06 1.130906329490D-02 6.906688213348D-06 5.153652618408D+03
    4.320000000000D+05-5.587935447693D-09 2.023613188709D+00 2.831220626831D-07
    9.699865802002D-01 2.490312500000D+02-1.209066509856D+00-7.809253858197D-09
    6.821712723145D-11 1.000000000000D+00 1.538000000000D+03 0.000000000000D+00
    2.800000000000D+00 0.000000000000D+00-7.450580596924D-09 1.160000000000D+02
    4.248180000000D+05 4.000000000000D+00
 7 09  7  3  0  0  0.0 1.595076173544D-05-6.821210263297D-13 0.000000000000D+00
    3.600000000000D+01-1.160937500000D+02 4.186245802512D-09-1.481617990536D-01
   -5.947425961494D-06 2.773925196379D-03 7.215887308121D-06 5.153669124603D+03
    4.320000000000D+05 2.793967723846D-08 2.118067682386D+00 1.862645149231D-09
    9.678164992248D-01 2.421875000000D+02 2.878577675469D+00-7.933901907432D-09
    1.171477368163D-10 1.000000000000D+00 1.538000000000D+03 0.000000000000D+00
    2.000000000000D+00 0.000000000000D+00-1.071020960808D-08 3.600000000000D+01
    4.248180000000D+05 4.000000000000D+00
19 09  7  3  0  0  0.0 2.044299617410D-05-1.364242052659D-12 0.000000000000D+00
    8.100000000000D+01-6.875000000000D-01 5.067353932774D-09 1.961211730466D+00
    2.570450305939D-07 5.719214212149D-03 6.154179573059D-06 5.153616163254D+03
    4.320000000000D+05 1.508742570877D-07-1.997928753546D+00 1.098960638046D-07
    9.571497681012D-01 2.566875000000D+02-3.347070677443D-01-8.129624345771D-09
   -2.628680923683D-10 1.000000000000D+00 1.538000000000D+03 0.000000000000D+00
    2.000000000000D+00 0.000000000000D+00-1.443549990654D-08 8.100000000000D+01
    4.248180000000D+05 4.000000000000D+00
16 09  7  3  0  0  0.0 3.646826371551D-05-3.524291969370D-12 0.000000000000D+00
    5.300000000000D+01-2.128125000000D+01 4.465185992919D-09-2.589742737454D+00
   -9.965151548386D-07 5.348204169422D-03 9.084120392799D-06 5.153573049545D+03
    4.320000000000D+05-1.173466444016D-07-3.096042712549D+00 5.587935447693D-08
    9.691280257637D-01 2.113750000000D+02-3.252920034776D-01-7.702463695673D-09
    4.996636701403D-10 1.000000000000D+00 1.538000000000D+03 0.000000000000D+00
    2.000000000000D+00 0.000000000000D+00-9.778887033463D-09 5.300000000000D+01
    4.248180000000D+05 4.000000000000D+00
21 09  7  3  0  0  0.0 4.980247467756D-06-2.160049916711D-12 0.000000000000D+00
    7.300000000000D+01 3.009375000000D+01 4.958420823844D-09-1.117481224241D+00
    1.443549990654D-06 1.545259379782D-02 8.590519428253D-06 5.153603609085D+03
    4.320000000000D+05 4.265457391739D-07-1.006318469615D+00-4.284083843231D-08
    9.336318019692D-01 1.995312500000D+02-2.583781574496D+00-8.082836682592D-09
   -5.110927176346D-10 1.000000000000D+00 1.538000000000D+03 0.000000000000D+00
    2.000000000000D+00 0.000000000000D+00-1.210719347000D-08 7.300000000000D+01
    4.248180000000D+05 4.000000000000D+00
13 09  7  3  0  0  0.0 3.006542101502D-04 7.958078640513D-13 0.000000000000D+00
    4.300000000000D+01-1.871875000000D+01 3.733369795552D-09 2.138357520820D+00
   -9.797513484955D-07 4.159710486419D-03 1.596286892891D-06 5.153687816620D+03
    4.320000000000D+05 8.381903171539D-08 1.128623623178D+00 3.166496753693D-08
    9.946589320627D-01 3.664375000000D+02 1.611239466591D+00-7.926044437280D-09
    5.964534161075D-11 1.000000000000D+00 1.538000000000D+03 0.000000000000D+00
    2.000000000000D+00 0.000000000000D+00-1.117587089539D-08 4.300000000000D+01
    4.248180000000D+05 4.000000000000D+00
 8 09  7  3  0  0  0.0-2.100965939462D-04-1.591615728103D-12 0.000000000000D+00
    1.820000000000D+02-1.040625000000D+02 3.739084319299D-09-8.747514163819D-01
   -5.623325705528D-06 1.068729453254D-02 7.547438144684D-06 5.153642278671D+03
    4.320000000000D+05 7.078051567078D-08 2.179188048638D+00-1.639127731323D-07
    9.890576893770D-01 2.450000000000D+02 2.996579702315D+00-7.693177594584D-09
    2.125088518467D-10 1.000000000000D+00 1.538000000000D+03 0.000000000000D+00
    2.000000000000D+00 0.000000000000D+00-3.725290298462D-09 1.820000000000D+02
    4.248180000000D+05 4.000000000000D+00
18 09  7  3  0  0  0.0-4.322361201048D-05 3.183231456205D-12 0.000000000000D+00
    6.900000000000D+01 1.003125000000D+02 4.550546691392D-09-2.397426277422D+00
    5.211681127548D-06 1.060446223710D-02 5.841255187988D-06 5.153610214233D+03
    4.320000000000D+05 0.000000000000D+00 5.165214100471D-02-8.195638656616D-08
    9.421906524683D-01 2.584062500000D+02-2.410429066354D+00-7.949974005471D-09
    1.282196265764D-10 1.000000000000D+00 1.538000000000D+03 0.000000000000D+00
    2.000000000000D+00 0.000000000000D+00-1.071020960808D-08 6.900000000000D+01
    4.265820000000D+05 4.000000000000D+00
15 09  7  3  0  0  0.0-3.056051209569D-04-2.842170943040D-12 0.000000000000D+00
    7.000000000000D+01-4.062500000000D+00 4.615906556750D-09 2.211017646743D+00
   -3.147870302200D-07 1.458715996705D-03 1.534819602966D-06 5.153633541107D+03
    4.320000000000D+05 1.862645149231D-08 1.055251426269D+00-1.676380634308D-08
    9.561620570162D-01 3.463750000000D+02-4.668736452870D-01-8.334275727466D-09
    5.893102614235D-11 1.000000000000D+00 1.538000000000D+03 0.000000000000D+00
    2.000000000000D+00 0.000000000000D+00-9.778887033463D-09 7.000000000000D+01
    4.276320000000D+05 4.000000000000D+00
28 09  7  3  0  0  0.0-2.577761188149D-05-2.273736754432D-13 0.000000000000D+00
    6.300000000000D+01-2.771875000000D+01 4.408755070916D-09 3.102127685190D+00
   -1.506879925728D-06 1.492739410605D-02 8.860602974892D-06 5.153647258759D+03
    4.320000000000D+05 1.583248376846D-07-3.087909678004D+00-2.775341272354D-07
    9.673275261714D-01 2.102500000000D+02-2.023088565805D+00-7.540314084348D-09
    4.457328522767D-10 1.000000000000D+00 1.538000000000D+03 0.000000000000D+00
    2.800000000000D+00 0.000000000000D+00-1.071020960808D-08 6.300000000000D+01
    4.291020000000D+05 4.000000000000D+00
22 09  7  3  0  0  0.0 1.963353715837D-04-6.821210263297D-13 0.000000000000D+00
    3.800000000000D+01 1.036250000000D+02 4.636264547599D-09 2.856368367093D+00
    5.362555384636D-06 5.123862181790D-03 5.898997187614D-06 5.153661695480D+03
    4.320000000000D+05 6.705522537231D-08 5.725986149164D-02 6.891787052155D-08
    9.398553802462D-01 2.547500000000D+02-1.892584884317D+00-8.047835224640D-09
    7.321733551020D-11 1.000000000000D+00 1.538000000000D+03 0.000000000000D+00
    2.800000000000D+00 0.000000000000D+00-1.769512891769D-08 3.800000000000D+01
    4.291020000000D+05 4.000000000000D+00
11 09  7  3  0  0  0.0-8.998438715935D-06-1.705302565824D-12 0.000000000000D+00
    5.100000000000D+01 9.500000000000D+00 6.308834216840D-09-3.297469167227D-01
    4.153698682785D-07 9.458158514462D-03 7.912516593933D-06 5.153686910629D+03
    4.320000000000D+05 9.313225746155D-09-1.239544971452D+00 1.098960638046D-07
    8.889468990179D-01 1.845625000000D+02 7.011130891572D-01-8.905728102179D-09
   -6.564559154524D-10 1.000000000000D+00 1.538000000000D+03 0.000000000000D+00
    2.000000000000D+00 0.000000000000D+00-1.164153218269D-08 5.100000000000D+01
    4.306320000000D+05 4.000000000000D+00
